{
  "type": "FeatureCollection",
  "features": [
    {
      "type": "Feature",
      "properties": {
        "norad_id": 35476,
        "name": "COSMOS 2251 DEB",
        "group": "cosmos-2251-debris",
        "lat": 17.63661267359721,
        "lon": -127.26588880523464,
        "alt_km": 649.6515642411787,
        "timestamp": "2025-12-14T05:42:18.858953+00:00",
        "meta_object_name": "COSMOS 2251 DEB",
        "meta_object_id": "1993-036ALW",
        "meta_epoch": "2025-12-13T11:07:53.768928",
        "meta_mean_motion": 14.75711468,
        "meta_eccentricity": 0.00176475,
        "meta_inclination": 73.979,
        "meta_ra_of_asc_node": 59.4941,
        "meta_arg_of_pericenter": 40.149,
        "meta_mean_anomaly": 331.4663,
        "meta_ephemeris_type": 0,
        "meta_classification_type": "U",
        "meta_norad_cat_id": 35476,
        "meta_element_set_no": 999,
        "meta_rev_at_epoch": 87898,
        "meta_bstar": 0.0027399331,
        "meta_mean_motion_dot": 0.00018809,
        "meta_mean_motion_ddot": 0,
        "tle_line1": "1 35476U 93036ALW 25347.46381677  .00018809  00000+0  27399-2 0  9996",
        "tle_line2": "2 35476  73.9790  59.4941 0017647  40.1490 331.4663 14.75711468878987"
      },
      "geometry": {
        "type": "Point",
        "coordinates": [
          -127.26588880523464,
          17.63661267359721
        ]
      }
    },
    {
      "type": "Feature",
      "properties": {
        "norad_id": 35580,
        "name": "COSMOS 2251 DEB",
        "group": "cosmos-2251-debris",
        "lat": 53.26147045403035,
        "lon": -26.583658959612197,
        "alt_km": 830.418617364503,
        "timestamp": "2025-12-14T05:42:18.858964+00:00",
        "meta_object_name": "COSMOS 2251 DEB",
        "meta_object_id": "1993-036ALX",
        "meta_epoch": "2025-12-10T21:17:20.461632",
        "meta_mean_motion": 13.83850084,
        "meta_eccentricity": 0.0281508,
        "meta_inclination": 73.9016,
        "meta_ra_of_asc_node": 181.8733,
        "meta_arg_of_pericenter": 187.4326,
        "meta_mean_anomaly": 172.2587,
        "meta_ephemeris_type": 0,
        "meta_classification_type": "U",
        "meta_norad_cat_id": 35580,
        "meta_element_set_no": 999,
        "meta_rev_at_epoch": 62231,
        "meta_bstar": 0.0026077,
        "meta_mean_motion_dot": 3.904e-05,
        "meta_mean_motion_ddot": 0,
        "tle_line1": "1 35580U 93036ALX 25344.88704238  .00003904  00000+0  26077-2 0  9999",
        "tle_line2": "2 35580  73.9016 181.8733 0281508 187.4326 172.2587 13.83850084622311"
      },
      "geometry": {
        "type": "Point",
        "coordinates": [
          -26.583658959612197,
          53.26147045403035
        ]
      }
    },
    {
      "type": "Feature",
      "properties": {
        "norad_id": 35583,
        "name": "COSMOS 2251 DEB",
        "group": "cosmos-2251-debris",
        "lat": 28.79073188772599,
        "lon": -141.28893924482375,
        "alt_km": 1311.7944981761448,
        "timestamp": "2025-12-14T05:42:18.858974+00:00",
        "meta_object_name": "COSMOS 2251 DEB",
        "meta_object_id": "1993-036AMA",
        "meta_epoch": "2025-12-13T08:17:27.195360",
        "meta_mean_motion": 13.55336644,
        "meta_eccentricity": 0.03854466,
        "meta_inclination": 73.9165,
        "meta_ra_of_asc_node": 211.0344,
        "meta_arg_of_pericenter": 235.2733,
        "meta_mean_anomaly": 121.1514,
        "meta_ephemeris_type": 0,
        "meta_classification_type": "U",
        "meta_norad_cat_id": 35583,
        "meta_element_set_no": 999,
        "meta_rev_at_epoch": 82420,
        "meta_bstar": 0.0009708291,
        "meta_mean_motion_dot": 1.059e-05,
        "meta_mean_motion_ddot": 0,
        "tle_line1": "1 35583U 93036AMA 25347.34545365  .00001059  00000+0  97083-3 0  9995",
        "tle_line2": "2 35583  73.9165 211.0344 0385446 235.2733 121.1514 13.55336644824208"
      },
      "geometry": {
        "type": "Point",
        "coordinates": [
          -141.28893924482375,
          28.79073188772599
        ]
      }
    },
    {
      "type": "Feature",
      "properties": {
        "norad_id": 35585,
        "name": "COSMOS 2251 DEB",
        "group": "cosmos-2251-debris",
        "lat": 73.95783378991347,
        "lon": 74.29482275970875,
        "alt_km": 1196.7928974477736,
        "timestamp": "2025-12-14T05:42:18.858984+00:00",
        "meta_object_name": "COSMOS 2251 DEB",
        "meta_object_id": "1993-036AMC",
        "meta_epoch": "2025-12-11T11:41:44.780640",
        "meta_mean_motion": 13.75243352,
        "meta_eccentricity": 0.03105022,
        "meta_inclination": 73.9732,
        "meta_ra_of_asc_node": 350.5027,
        "meta_arg_of_pericenter": 263.0041,
        "meta_mean_anomaly": 255.5124,
        "meta_ephemeris_type": 0,
        "meta_classification_type": "U",
        "meta_norad_cat_id": 35585,
        "meta_element_set_no": 999,
        "meta_rev_at_epoch": 64046,
        "meta_bstar": 0.0018464241,
        "meta_mean_motion_dot": 2.49e-05,
        "meta_mean_motion_ddot": 0,
        "tle_line1": "1 35585U 93036AMC 25345.48732385  .00002490  00000+0  18464-2 0  9995",
        "tle_line2": "2 35585  73.9732 350.5027 0310502 263.0041 255.5124 13.75243352640467"
      },
      "geometry": {
        "type": "Point",
        "coordinates": [
          74.29482275970875,
          73.95783378991347
        ]
      }
    },
    {
      "type": "Feature",
      "properties": {
        "norad_id": 35586,
        "name": "COSMOS 2251 DEB",
        "group": "cosmos-2251-debris",
        "lat": 26.432009852052833,
        "lon": 111.889749141946,
        "alt_km": 783.710849931801,
        "timestamp": "2025-12-14T05:42:18.858995+00:00",
        "meta_object_name": "COSMOS 2251 DEB",
        "meta_object_id": "1993-036AMD",
        "meta_epoch": "2025-12-09T15:43:44.050080",
        "meta_mean_motion": 13.52082947,
        "meta_eccentricity": 0.0404687,
        "meta_inclination": 74.02,
        "meta_ra_of_asc_node": 307.4172,
        "meta_arg_of_pericenter": 183.4058,
        "meta_mean_anomaly": 354.3417,
        "meta_ephemeris_type": 0,
        "meta_classification_type": "U",
        "meta_norad_cat_id": 35586,
        "meta_element_set_no": 999,
        "meta_rev_at_epoch": 60340,
        "meta_bstar": 0.00055296,
        "meta_mean_motion_dot": 5.88e-06,
        "meta_mean_motion_ddot": 0,
        "tle_line1": "1 35586U 93036AMD 25343.65537095  .00000588  00000+0  55296-3 0  9995",
        "tle_line2": "2 35586  74.0200 307.4172 0404687 183.4058 354.3417 13.52082947603405"
      },
      "geometry": {
        "type": "Point",
        "coordinates": [
          111.889749141946,
          26.432009852052833
        ]
      }
    },
    {
      "type": "Feature",
      "properties": {
        "norad_id": 35587,
        "name": "COSMOS 2251 DEB",
        "group": "cosmos-2251-debris",
        "lat": -50.21698507325904,
        "lon": 35.35845258637175,
        "alt_km": 630.7281238256583,
        "timestamp": "2025-12-14T05:42:18.859005+00:00",
        "meta_object_name": "COSMOS 2251 DEB",
        "meta_object_id": "1993-036AME",
        "meta_epoch": "2025-12-12T21:18:47.401632",
        "meta_mean_motion": 14.71521652,
        "meta_eccentricity": 0.01026064,
        "meta_inclination": 74.0049,
        "meta_ra_of_asc_node": 58.1365,
        "meta_arg_of_pericenter": 245.7643,
        "meta_mean_anomaly": 113.2781,
        "meta_ephemeris_type": 0,
        "meta_classification_type": "U",
        "meta_norad_cat_id": 35587,
        "meta_element_set_no": 999,
        "meta_rev_at_epoch": 66348,
        "meta_bstar": 0.00043835007,
        "meta_mean_motion_dot": 2.92e-05,
        "meta_mean_motion_ddot": 0,
        "tle_line1": "1 35587U 93036AME 25346.88804863  .00002920  00000+0  43835-3 0  9992",
        "tle_line2": "2 35587  74.0049  58.1365 0102606 245.7643 113.2781 14.71521652663482"
      },
      "geometry": {
        "type": "Point",
        "coordinates": [
          35.35845258637175,
          -50.21698507325904
        ]
      }
    },
    {
      "type": "Feature",
      "properties": {
        "norad_id": 35593,
        "name": "COSMOS 2251 DEB",
        "group": "cosmos-2251-debris",
        "lat": -8.814379214512615,
        "lon": 108.28964667529164,
        "alt_km": 826.206110316898,
        "timestamp": "2025-12-14T05:42:18.859015+00:00",
        "meta_object_name": "COSMOS 2251 DEB",
        "meta_object_id": "1993-036AML",
        "meta_epoch": "2025-12-13T13:39:11.240640",
        "meta_mean_motion": 14.25601821,
        "meta_eccentricity": 0.0105204,
        "meta_inclination": 74.0858,
        "meta_ra_of_asc_node": 286.9573,
        "meta_arg_of_pericenter": 293.2904,
        "meta_mean_anomaly": 65.7198,
        "meta_ephemeris_type": 0,
        "meta_classification_type": "U",
        "meta_norad_cat_id": 35593,
        "meta_element_set_no": 999,
        "meta_rev_at_epoch": 85077,
        "meta_bstar": 0.0011605739,
        "meta_mean_motion_dot": 2.887e-05,
        "meta_mean_motion_ddot": 0,
        "tle_line1": "1 35593U 93036AML 25347.56888010  .00002887  00000+0  11606-2 0  9993",
        "tle_line2": "2 35593  74.0858 286.9573 0105204 293.2904  65.7198 14.25601821850773"
      },
      "geometry": {
        "type": "Point",
        "coordinates": [
          108.28964667529164,
          -8.814379214512615
        ]
      }
    }
  ]
}